{
    "links": {
        "self": "http://www.neowsapp.com/rest/v1/neo/3764846?api_key=iIulBulltgU6a56xZRHN4H3l9WmuAYTsLGpBGhQ2"
    },
    "id": "3764846",
    "neo_reference_id": "3764846",
    "name": "(2016 WB9)",
    "designation": "2016 WB9",
    "nasa_jpl_url": "http://ssd.jpl.nasa.gov/sbdb.cgi?sstr=3764846",
    "absolute_magnitude_h": 24.6,
    "estimated_diameter": {
        "kilometers": {
            "estimated_diameter_min": 0.0319561887,
            "estimated_diameter_max": 0.0714562102
        },
        "meters": {
            "estimated_diameter_min": 31.9561886721,
            "estimated_diameter_max": 71.4562101727
        },
        "miles": {
            "estimated_diameter_min": 0.0198566489,
            "estimated_diameter_max": 0.0444008168
        },
        "feet": {
            "estimated_diameter_min": 104.8431420431,
            "estimated_diameter_max": 234.436392583
        }
    },
    "is_potentially_hazardous_asteroid": false,
    "close_approach_data": [
        {
            "close_approach_date": "2016-11-06",
            "close_approach_date_full": "2016-Nov-06 01:44",
            "epoch_date_close_approach": 1478396640000,
            "relative_velocity": {
                "kilometers_per_second": "5.2898221669",
                "kilometers_per_hour": "19043.3598008202",
                "miles_per_hour": "11832.8032051263"
            },
            "miss_distance": {
                "astronomical": "0.097483282",
                "lunar": "37.920996698",
                "kilometers": "14583291.34780934",
                "miles": "9061637.049835292"
            },
            "orbiting_body": "Earth"
        }
    ],
    "orbital_data": {
        "orbit_id": "6",
        "orbit_determination_date": "2017-04-06 08:21:50",
        "first_observation_date": "2016-11-26",
        "last_observation_date": "2016-12-10",
        "data_arc_in_days": 14,
        "observations_used": 24,
        "orbit_uncertainty": "8",
        "minimum_orbit_intersection": ".0920354",
        "jupiter_tisserand_invariant": "3.684",
        "epoch_osculation": "2457719.5",
        "eccentricity": ".4627765192165347",
        "semi_major_axis": "2.014146762767117",
        "inclination": "3.503874159911089",
        "ascending_node_longitude": "58.38924679377504",
        "orbital_period": "1044.083171471201",
        "perihelion_distance": "1.082046934702499",
        "perihelion_argument": "341.2612714892236",
        "aphelion_distance": "2.946246590831735",
        "perihelion_time": "2457696.186470904641",
        "mean_anomaly": "8.038507566885675",
        "mean_motion": ".3448001173055303",
        "equinox": "J2000",
        "orbit_class": {
            "orbit_class_type": "AMO",
            "orbit_class_description": "Near-Earth asteroid orbits similar to that of 1221 Amor",
            "orbit_class_range": "1.017 AU < q (perihelion) < 1.3 AU"
        }
    },
    "is_sentry_object": false
}